H1 CPF  1  DLR 2021 06 23 10  6742 technosat            
H2  1704205 6203    42829 2021 06 23 00 00 00 2021 06 30 00 00 00    60 1 1  0 0 0
H9
10 0 59390  79200.000000  0      -4626012.121       2179163.955       4729168.891
10 0 59390  79260.000000  0      -4297572.670       2136455.077       5046127.158
10 0 59390  79320.000000  0      -3951428.437       2081781.555       5341641.977
10 0 59390  79380.000000  0      -3589142.922       2015225.239       5614455.840
10 0 59390  79440.000000  0      -3212347.183       1936932.243       5863407.840
10 0 59390  79500.000000  0      -2822732.220       1847112.862       6087438.558
10 0 59390  79560.000000  0      -2422041.202       1746041.119       6285594.486
10 0 59390  79620.000000  0      -2012061.496       1634054.005       6457032.027
10 0 59390  79680.000000  0      -1594616.514       1511550.378       6601020.974
10 0 59390  79740.000000  0      -1171557.497       1378989.554       6716947.475
10 0 59390  79800.000000  0       -744755.260       1236889.590       6804316.546
10 0 59390  79860.000000  0       -316091.876       1085825.254       6862754.145
10 0 59390  79920.000000  0        112547.675        926425.674       6892008.765
10 0 59390  79980.000000  0        539283.855        759371.708       6891952.507
10 0 59390  80040.000000  0        962250.854        585393.051       6862581.656
10 0 59390  80100.000000  0       1379604.804        405265.040       6804016.777
10 0 59390  80160.000000  0       1789531.884        219805.209       6716502.292
10 0 59390  80220.000000  0       2190256.276         29869.582       6600405.605
10 0 59390  80280.000000  0       2580047.984       -163651.305       6456215.724
10 0 59390  80340.000000  0       2957230.487       -359836.567       6284541.334
10 0 59390  80400.000000  0       3320188.122       -557739.332       6086108.331
10 0 59390  80460.000000  0       3667373.212       -756391.294       5861756.917
10 0 59390  80520.000000  0       3997312.898       -954807.483       5612438.154
10 0 59390  80580.000000  0       4308615.585      -1151991.156       5339210.051
10 0 59390  80640.000000  0       4599977.076      -1346938.806       5043233.210
10 0 59390  80700.000000  0       4870186.332      -1538645.258       4725765.975
10 0 59390  80760.000000  0       5118130.814      -1726108.812       4388159.152
10 0 59390  80820.000000  0       5342801.409      -1908336.489       4031850.257
10 0 59390  80880.000000  0       5543296.819      -2084349.275       3658357.326
10 0 59390  80940.000000  0       5718827.433      -2253187.376       3269272.329
10 0 59390  81000.000000  0       5868718.635      -2413915.395       2866254.236
10 0 59390  81060.000000  0       5992413.568      -2565627.432       2451021.779
10 0 59390  81120.000000  0       6089475.325      -2707452.051       2025345.921
10 0 59390  81180.000000  0       6159588.609      -2838557.125       1591042.122
10 0 59390  81240.000000  0       6202560.838      -2958154.573       1149962.255
10 0 59390  81300.000000  0       6218322.460      -3065504.823        703986.310
10 0 59390  81360.000000  0       6206926.682      -3159921.026        255014.143
10 0 59390  81420.000000  0       6168548.729      -3240773.060       -195042.917
10 0 59390  81480.000000  0       6103484.453      -3307491.251       -644270.603
10 0 59390  81540.000000  0       6012148.225      -3359569.764      -1090760.227
10 0 59390  81600.000000  0       5895070.254      -3396569.614      -1532617.032
10 0 59390  81660.000000  0       5752893.414      -3418121.377      -1967968.423
10 0 59390  81720.000000  0       5586369.574      -3423927.568      -2394972.066
10 0 59390  81780.000000  0       5396355.418      -3413764.643      -2811823.844
10 0 59390  81840.000000  0       5183807.756      -3387484.602      -3216765.570
10 0 59390  81900.000000  0       4949778.380      -3345016.217      -3608092.377
10 0 59390  81960.000000  0       4695408.599      -3286365.927      -3984159.823
10 0 59390  82020.000000  0       4421923.364      -3211618.319      -4343390.739
10 0 59390  82080.000000  0       4130625.015      -3120936.180      -4684281.654
10 0 59390  82140.000000  0       3822886.797      -3014560.179      -5005408.814
10 0 59390  82200.000000  0       3500146.127      -2892808.180      -5305433.791
10 0 59390  82260.000000  0       3163897.713      -2756074.210      -5583108.647
10 0 59390  82320.000000  0       2815686.536      -2604827.120      -5837280.721
10 0 59390  82380.000000  0       2457100.720      -2439608.918      -6066897.037
10 0 59390  82440.000000  0       2089764.254      -2261032.742      -6271008.328
10 0 59390  82500.000000  0       1715329.615      -2069780.455      -6448772.605
10 0 59390  82560.000000  0       1335470.331      -1866599.910      -6599458.218
10 0 59390  82620.000000  0        951873.599      -1652301.960      -6722446.397
10 0 59390  82680.000000  0        566232.979      -1427757.242      -6817233.433
10 0 59390  82740.000000  0        180241.063      -1193892.652      -6883432.442
10 0 59390  82800.000000  0       -204417.719       -951687.560      -6920774.609
10 0 59390  82860.000000  0       -586074.155       -702169.834      -6929110.098
10 0 59390  82920.000000  0       -963081.280       -446411.602      -6908408.563
10 0 59390  82980.000000  0      -1333821.275       -185524.758      -6858759.161
10 0 59390  83040.000000  0      -1696712.158         79343.719      -6780370.120
10 0 59390  83100.000000  0      -2050214.293        347016.618      -6673567.920
10 0 59390  83160.000000  0      -2392836.689        616291.532      -6538796.060
10 0 59390  83220.000000  0      -2723143.081        885946.073      -6376613.428
10 0 59390  83280.000000  0      -3039757.804       1154743.230      -6187692.249
10 0 59390  83340.000000  0      -3341371.427       1421436.843      -5972815.648
10 0 59390  83400.000000  0      -3626746.185       1684777.214      -5732874.793
10 0 59390  83460.000000  0      -3894721.099       1943516.819      -5468865.567
10 0 59390  83520.000000  0      -4144216.791       2196416.125      -5181884.831
10 0 59390  83580.000000  0      -4374239.957       2442249.469      -4873126.199
10 0 59390  83640.000000  0      -4583887.462       2679810.899      -4543875.413
10 0 59390  83700.000000  0      -4772350.038       2907920.016      -4195505.340
10 0 59390  83760.000000  0      -4938915.614       3125427.768      -3829470.626
10 0 59390  83820.000000  0      -5082972.287       3331222.231      -3447301.985
10 0 59390  83880.000000  0      -5204010.844       3524234.343      -3050600.035
10 0 59390  83940.000000  0      -5301626.778       3703443.454      -2641028.768
10 0 59390  84000.000000  0      -5375521.827       3867882.706      -2220308.752
10 0 59390  84060.000000  0      -5425505.112       4016644.251      -1790210.039
10 0 59390  84120.000000  0      -5451493.761       4148884.251      -1352544.723
10 0 59390  84180.000000  0      -5453512.974       4263827.592       -909159.280
10 0 59390  84240.000000  0      -5431695.601       4360772.323       -461926.746
10 0 59390  84300.000000  0      -5386281.233       4439093.844        -12738.675
10 0 59390  84360.000000  0      -5317614.736       4498248.689        436503.092
10 0 59390  84420.000000  0      -5226144.216       4537777.868        883894.706
10 0 59390  84480.000000  0      -5112418.526       4557309.841       1327538.564
10 0 59390  84540.000000  0      -4977084.278       4556563.089       1765551.621
10 0 59390  84600.000000  0      -4820882.360       4535348.218       2196073.592
10 0 59390  84660.000000  0      -4644644.019       4493569.690       2617275.057
10 0 59390  84720.000000  0      -4449286.496       4431227.061       3027365.470
10 0 59390  84780.000000  0      -4235808.271       4348415.729       3424600.962
10 0 59390  84840.000000  0      -4005283.949       4245327.207       3807291.934
10 0 59390  84900.000000  0      -3758858.798       4122248.911       4173810.360
10 0 59390  84960.000000  0      -3497743.042       3979563.532       4522596.838
10 0 59390  85020.000000  0      -3223205.783       3817747.893       4852167.360
10 0 59390  85080.000000  0      -2936568.720       3637371.321       5161119.655
10 0 59390  85140.000000  0      -2639199.666       3439093.626       5448139.187
10 0 59390  85200.000000  0      -2332505.881       3223662.601       5712004.742
10 0 59390  85260.000000  0      -2017927.288       2991911.114       5951593.574
10 0 59390  85320.000000  0      -1696929.589       2744753.795       6165886.148
10 0 59390  85380.000000  0      -1370997.275       2483183.258       6353970.380
10 0 59390  85440.000000  0      -1041626.706       2208266.010       6515045.298
10 0 59390  85500.000000  0       -710319.287       1921138.088       6648424.382
10 0 59390  85560.000000  0       -378574.568       1623000.289       6753538.524
10 0 59390  85620.000000  0        -47883.368       1315113.047       6829938.379
10 0 59390  85680.000000  0        280278.970        998791.071       6877296.216
10 0 59390  85740.000000  0        604459.203        675397.702       6895407.297
10 0 59390  85800.000000  0        923232.656        346339.027       6884190.771
10 0 59390  85860.000000  0       1235209.523         13057.748       6843690.100
10 0 59390  85920.000000  0       1539040.992       -322973.180       6774072.995
10 0 59390  85980.000000  0       1833425.167       -660257.154       6675630.806
10 0 59390  86040.000000  0       2117112.697       -997280.611       6548777.353
10 0 59390  86100.000000  0       2388912.185      -1332519.841       6394047.385
10 0 59390  86160.000000  0       2647695.365      -1664447.971       6212094.510
10 0 59390  86220.000000  0       2892401.946      -1991542.057       6003688.546
10 0 59390  86280.000000  0       3122044.101      -2312290.171       5769712.364
10 0 59390  86340.000000  0       3335710.604      -2625198.493       5511158.286
99
